{
  "type": "FeatureCollection",
  "features": [
    {
      "type": "Feature",
      "properties": {
        "norad_id": 66682,
        "name": "TRANSPORTER-15 S",
        "group": "last-30-days",
        "lat": 82.51292467519059,
        "lon": -28.167986099736307,
        "alt_km": 510.05900153465427,
        "timestamp": "2025-12-21T20:41:06.756498+00:00",
        "meta_object_name": "TRANSPORTER-15 S",
        "meta_object_id": "2025-276S",
        "meta_epoch": "2025-12-21T10:47:19.200192",
        "meta_mean_motion": 15.1710325,
        "meta_eccentricity": 0.00048013,
        "meta_inclination": 97.4462,
        "meta_ra_of_asc_node": 67.0602,
        "meta_arg_of_pericenter": 245.0806,
        "meta_mean_anomaly": 114.9929,
        "meta_ephemeris_type": 0,
        "meta_classification_type": "U",
        "meta_norad_cat_id": 66682,
        "meta_element_set_no": 999,
        "meta_rev_at_epoch": 344,
        "meta_bstar": 0.00042355791,
        "meta_mean_motion_dot": 8.333e-05,
        "meta_mean_motion_ddot": 0,
        "tle_line1": "1 66682U 25276S   25355.44952778  .00008333  00000+0  42356-3 0  9995",
        "tle_line2": "2 66682  97.4462  67.0602 0004801 245.0806 114.9929 15.17103250  3442"
      },
      "geometry": {
        "type": "Point",
        "coordinates": [
          -28.167986099736307,
          82.51292467519059
        ]
      }
    },
    {
      "type": "Feature",
      "properties": {
        "norad_id": 66683,
        "name": "TRANSPORTER-15 T",
        "group": "last-30-days",
        "lat": 81.82870134394925,
        "lon": 1.8509045518087328,
        "alt_km": 510.4790204268702,
        "timestamp": "2025-12-21T20:41:06.756508+00:00",
        "meta_object_name": "TRANSPORTER-15 T",
        "meta_object_id": "2025-276T",
        "meta_epoch": "2025-12-21T12:23:20.558688",
        "meta_mean_motion": 15.16993617,
        "meta_eccentricity": 0.00046503,
        "meta_inclination": 97.4456,
        "meta_ra_of_asc_node": 67.1227,
        "meta_arg_of_pericenter": 247.5877,
        "meta_mean_anomaly": 112.4864,
        "meta_ephemeris_type": 0,
        "meta_classification_type": "U",
        "meta_norad_cat_id": 66683,
        "meta_element_set_no": 999,
        "meta_rev_at_epoch": 345,
        "meta_bstar": 0.00039199879,
        "meta_mean_motion_dot": 7.682e-05,
        "meta_mean_motion_ddot": 0,
        "tle_line1": "1 66683U 25276T   25355.51621017  .00007682  00000+0  39200-3 0  9993",
        "tle_line2": "2 66683  97.4456  67.1227 0004650 247.5877 112.4864 15.16993617  3452"
      },
      "geometry": {
        "type": "Point",
        "coordinates": [
          1.8509045518087328,
          81.82870134394925
        ]
      }
    },
    {
      "type": "Feature",
      "properties": {
        "norad_id": 66684,
        "name": "TRANSPORTER-15 U",
        "group": "last-30-days",
        "lat": 75.25892641648072,
        "lon": -82.7086782338302,
        "alt_km": 509.3422765847854,
        "timestamp": "2025-12-21T20:41:06.756517+00:00",
        "meta_object_name": "TRANSPORTER-15 U",
        "meta_object_id": "2025-276U",
        "meta_epoch": "2025-12-21T10:44:13.286400",
        "meta_mean_motion": 15.17275168,
        "meta_eccentricity": 0.00044447,
        "meta_inclination": 97.448,
        "meta_ra_of_asc_node": 67.0686,
        "meta_arg_of_pericenter": 246.2895,
        "meta_mean_anomaly": 113.7873,
        "meta_ephemeris_type": 0,
        "meta_classification_type": "U",
        "meta_norad_cat_id": 66684,
        "meta_element_set_no": 999,
        "meta_rev_at_epoch": 344,
        "meta_bstar": 0.00045817718,
        "meta_mean_motion_dot": 9.064e-05,
        "meta_mean_motion_ddot": 0,
        "tle_line1": "1 66684U 25276U   25355.44737600  .00009064  00000+0  45818-3 0  9990",
        "tle_line2": "2 66684  97.4480  67.0686 0004444 246.2895 113.7873 15.17275168  3443"
      },
      "geometry": {
        "type": "Point",
        "coordinates": [
          -82.7086782338302,
          75.25892641648072
        ]
      }
    },
    {
      "type": "Feature",
      "properties": {
        "norad_id": 66685,
        "name": "TRANSPORTER-15 V",
        "group": "last-30-days",
        "lat": 69.07842058480087,
        "lon": -92.54203341159739,
        "alt_km": 509.3994467348339,
        "timestamp": "2025-12-21T20:41:06.756529+00:00",
        "meta_object_name": "TRANSPORTER-15 V",
        "meta_object_id": "2025-276V",
        "meta_epoch": "2025-12-21T12:17:28.894272",
        "meta_mean_motion": 15.1753371,
        "meta_eccentricity": 0.00045173,
        "meta_inclination": 97.4424,
        "meta_ra_of_asc_node": 67.1193,
        "meta_arg_of_pericenter": 272.8737,
        "meta_mean_anomaly": 87.198,
        "meta_ephemeris_type": 0,
        "meta_classification_type": "U",
        "meta_norad_cat_id": 66685,
        "meta_element_set_no": 999,
        "meta_rev_at_epoch": 345,
        "meta_bstar": 0.0043500157,
        "meta_mean_motion_dot": 0.00088212,
        "meta_mean_motion_ddot": 0,
        "tle_line1": "1 66685U 25276V   25355.51213998  .00088212  00000+0  43500-2 0  9995",
        "tle_line2": "2 66685  97.4424  67.1193 0004517 272.8737  87.1980 15.17533710  3451"
      },
      "geometry": {
        "type": "Point",
        "coordinates": [
          -92.54203341159739,
          69.07842058480087
        ]
      }
    },
    {
      "type": "Feature",
      "properties": {
        "norad_id": 66686,
        "name": "TRANSPORTER-15 W",
        "group": "last-30-days",
        "lat": 82.45889273234705,
        "lon": -31.444894504094485,
        "alt_km": 510.06645558191394,
        "timestamp": "2025-12-21T20:41:06.756538+00:00",
        "meta_object_name": "TRANSPORTER-15 W",
        "meta_object_id": "2025-276W",
        "meta_epoch": "2025-12-21T10:47:09.789504",
        "meta_mean_motion": 15.16985058,
        "meta_eccentricity": 0.00040639,
        "meta_inclination": 97.446,
        "meta_ra_of_asc_node": 67.0606,
        "meta_arg_of_pericenter": 250.1446,
        "meta_mean_anomaly": 109.9349,
        "meta_ephemeris_type": 0,
        "meta_classification_type": "U",
        "meta_norad_cat_id": 66686,
        "meta_element_set_no": 999,
        "meta_rev_at_epoch": 344,
        "meta_bstar": 0.00030519911,
        "meta_mean_motion_dot": 5.963e-05,
        "meta_mean_motion_ddot": 0,
        "tle_line1": "1 66686U 25276W   25355.44941886  .00005963  00000+0  30520-3 0  9993",
        "tle_line2": "2 66686  97.4460  67.0606 0004063 250.1446 109.9349 15.16985058  3448"
      },
      "geometry": {
        "type": "Point",
        "coordinates": [
          -31.444894504094485,
          82.45889273234705
        ]
      }
    },
    {
      "type": "Feature",
      "properties": {
        "norad_id": 66687,
        "name": "TRANSPORTER-15 X",
        "group": "last-30-days",
        "lat": 62.03213888588023,
        "lon": 53.187165653222614,
        "alt_km": 504.1757600742758,
        "timestamp": "2025-12-21T20:41:06.756547+00:00",
        "meta_object_name": "TRANSPORTER-15 X",
        "meta_object_id": "2025-276X",
        "meta_epoch": "2025-12-21T12:29:30.717888",
        "meta_mean_motion": 15.16664237,
        "meta_eccentricity": 0.00083283,
        "meta_inclination": 97.4393,
        "meta_ra_of_asc_node": 67.0979,
        "meta_arg_of_pericenter": 59.2929,
        "meta_mean_anomaly": 300.9124,
        "meta_ephemeris_type": 0,
        "meta_classification_type": "U",
        "meta_norad_cat_id": 66687,
        "meta_element_set_no": 999,
        "meta_rev_at_epoch": 345,
        "meta_bstar": 0.00056884391,
        "meta_mean_motion_dot": 0.00011085,
        "meta_mean_motion_ddot": 0,
        "tle_line1": "1 66687U 25276X   25355.52049442  .00011085  00000+0  56884-3 0  9993",
        "tle_line2": "2 66687  97.4393  67.0979 0008328  59.2929 300.9124 15.16664237  3457"
      },
      "geometry": {
        "type": "Point",
        "coordinates": [
          53.187165653222614,
          62.03213888588023
        ]
      }
    },
    {
      "type": "Feature",
      "properties": {
        "norad_id": 66688,
        "name": "TRANSPORTER-15 Y",
        "group": "last-30-days",
        "lat": 80.5246478608073,
        "lon": -60.96681806311657,
        "alt_km": 509.63724007851306,
        "timestamp": "2025-12-21T20:41:06.756556+00:00",
        "meta_object_name": "TRANSPORTER-15 Y",
        "meta_object_id": "2025-276Y",
        "meta_epoch": "2025-12-21T10:45:57.235968",
        "meta_mean_motion": 15.17059144,
        "meta_eccentricity": 0.00036493,
        "meta_inclination": 97.4439,
        "meta_ra_of_asc_node": 67.0556,
        "meta_arg_of_pericenter": 254.4316,
        "meta_mean_anomaly": 105.6515,
        "meta_ephemeris_type": 0,
        "meta_classification_type": "U",
        "meta_norad_cat_id": 66688,
        "meta_element_set_no": 999,
        "meta_rev_at_epoch": 344,
        "meta_bstar": 0.00036598588,
        "meta_mean_motion_dot": 7.18e-05,
        "meta_mean_motion_ddot": 0,
        "tle_line1": "1 66688U 25276Y   25355.44857912  .00007180  00000+0  36599-3 0  9996",
        "tle_line2": "2 66688  97.4439  67.0556 0003649 254.4316 105.6515 15.17059144  3449"
      },
      "geometry": {
        "type": "Point",
        "coordinates": [
          -60.96681806311657,
          80.5246478608073
        ]
      }
    }
  ]
}